[{"OBJECT_NAME":"STARLINK-31094","OBJECT_ID":"2023-200E","EPOCH":"2026-03-09T14:55:33.976128","MEAN_MOTION":15.26740016,"ECCENTRICITY":0.00013941,"INCLINATION":43.0018,"RA_OF_ASC_NODE":168.9694,"ARG_OF_PERICENTER":266.7261,"MEAN_ANOMALY":93.3431,"EPHEMERIS_TYPE":0,"CLASSIFICATION_TYPE":"U","NORAD_CAT_ID":58593,"ELEMENT_SET_NO":999,"REV_AT_EPOCH":12360,"BSTAR":3.2519584e-5,"MEAN_MOTION_DOT":6.13e-6,"MEAN_MOTION_DDOT":0},{"OBJECT_NAME":"COSMOS 546","OBJECT_ID":"1973-005A","EPOCH":"2026-03-09T21:40:39.247392","MEAN_MOTION":15.29707303,"ECCENTRICITY":0.00147738,"INCLINATION":50.6327,"RA_OF_ASC_NODE":289.914,"ARG_OF_PERICENTER":261.1516,"MEAN_ANOMALY":98.7778,"EPHEMERIS_TYPE":0,"CLASSIFICATION_TYPE":"U","NORAD_CAT_ID":6350,"ELEMENT_SET_NO":999,"REV_AT_EPOCH":92802,"BSTAR":9.142057e-5,"MEAN_MOTION_DOT":2.316e-5,"MEAN_MOTION_DDOT":0}]
